STARLINK-37536          
1 69508U 26133A   26185.16671296 -.02342789  00000+0 -43344-1 0  9998
2 69508  53.1595 237.5892 0000757  97.8721 294.2582 15.52236558  4702
STARLINK-37341          
1 69509U 26133B   26185.16671296 -.00683066  00000+0 -13182-1 0  9990
2 69509  53.1595 237.6044 0001430  74.2924 310.2160 15.49738038  4703
STARLINK-36536          
1 69510U 26133C   26185.16671296 -.02497278  00000+0 -27055-1 0  9996
2 69510  53.1594 237.0972 0000953  75.4552 198.4580 15.66382186  4640
STARLINK-37420          
1 69511U 26133D   26185.16671296 -.02547585  00000+0 -22304-1 0  9996
2 69511  53.1597 236.9782 0000767  78.9075 252.6996 15.71561267  4595
STARLINK-37511          
1 69512U 26133E   26185.16671296 -.02582005  00000+0 -22661-1 0  9999
2 69512  53.1590 236.9897 0001138  92.8382 233.5293 15.71547214  4599
STARLINK-37552          
1 69513U 26133F   26185.16671296  .00114415  00000+0  20417-2 0  9990
2 69513  53.1597 237.5956 0002037  43.5426 344.2779 15.49217852  4597
STARLINK-37607          
1 69514U 26133G   26185.16671296 -.02590479  00000+0 -24473-1 0  9998
2 69514  53.1594 236.9509 0000743  79.5875 265.6537 15.69826297  4590
STARLINK-37232          
1 69515U 26133H   26185.16671296 -.02540733  00000+0 -44310-1 0  9999
2 69515  53.1597 237.3256 0001252  70.7517  89.6062 15.53542529  4593
STARLINK-37323          
1 69516U 26133J   26184.27358176 -.00273472  00000+0 -15956-2 0  9996
2 69516  53.1575 241.3014 0006070  16.6600 343.4620 15.78379244  4570
STARLINK-37357          
1 69517U 26133K   26185.16671296  .00080411  00000+0  14419-2 0  9997
2 69517  53.1599 237.5840 0000522 111.4114 280.4191 15.49251087  4598
STARLINK-37408          
1 69518U 26133L   26185.16671296 -.02497139  00000+0 -30255-1 0  9996
2 69518  53.1590 236.9815 0000773  77.0358 251.9425 15.63609419  4595
STARLINK-37570          
1 69519U 26133M   26185.16671296 -.01620913  00000+0 -31142-1 0  9990
2 69519  53.1601 237.3408 0000739 106.3356  44.3478 15.50463468  4598
STARLINK-37510          
1 69520U 26133N   26185.16671296 -.01867872  00000+0 -33732-1 0  9996
2 69520  53.1595 237.2965 0001516  78.3994  94.8207 15.52648695  4598
STARLINK-37586          
1 69521U 26133P   26184.06844497 -.01089186  00000+0 -69090-2 0  9991
2 69521  53.1572 242.1453 0003746 339.3596  20.7274 15.78258214  4556
STARLINK-37379          
1 69522U 26133Q   26185.16671296 -.02508420  00000+0 -38919-1 0  9992
2 69522  53.1594 237.0192 0000908  78.6268 230.1721 15.57257080  4641
STARLINK-37429          
1 69523U 26133R   26185.16671296  .00071518  00000+0  12845-2 0  9993
2 69523  53.1600 237.4003 0001345  87.3796  33.0944 15.49258044  4643
STARLINK-37352          
1 69524U 26133S   26185.16671296 -.02478835  00000+0 -39731-1 0  9993
2 69524  53.1591 236.9948 0001006 102.4776 217.7831 15.56344704  4649
STARLINK-37490          
1 69525U 26133T   26185.16671296 -.02547839  00000+0 -28306-1 0  9991
2 69525  53.1597 236.6717 0001272  67.7477  50.0256 15.65835902  4647
STARLINK-37438          
1 69526U 26133U   26185.16671296 -.02827031  00000+0 -52271-1 0  9995
2 69526  53.1593 237.1240 0000684  88.5007 167.5740 15.52357372  4645
STARLINK-37484          
1 69527U 26133V   26185.16671296 -.01949075  00000+0 -20282-1 0  9995
2 69527  53.1595 236.6300 0001086  90.0575  48.0512 15.67071990  4649
STARLINK-37523          
1 69528U 26133W   26185.16671296 -.00710636  00000+0 -11782-1 0  9999
2 69528  53.1596 236.9603 0001022  80.4427 255.4899 15.54040598  4647
STARLINK-37369          
1 69529U 26133X   26185.16671296 -.00703442  00000+0 -11415-1 0  9990
2 69529  53.1591 236.9245 0000848  93.1531 259.5482 15.54599226  4647
STARLINK-37670          
1 69530U 26133Y   26185.16671296 -.00317687  00000+0 -59031-2 0  9991
2 69530  53.1592 237.0548 0001017  63.2517 225.1853 15.49481252  4643
STARLINK-37897          
1 69531U 26133Z   26185.16671296 -.02529727  00000+0 -28855-1 0  9993
2 69531  53.1597 236.5500 0001344  79.5109  96.0685 15.65156886  4605
STARLINK-37933          
1 69532U 26133AA  26185.16671296 -.01937166  00000+0 -31408-1 0  9991
2 69532  53.1595 236.7534 0000993  95.1443 340.0141 15.55709096  4602
STARLINK-37890          
1 69533U 26133AB  26185.16671296 -.02496100  00000+0 -36777-1 0  9995
2 69533  53.1601 236.6221 0001432  72.5293  66.6746 15.58588953  4606
STARLINK-37407          
1 69534U 26133AC  26185.16671296 -.02514960  00000+0 -33981-1 0  9995
2 69534  53.1595 236.5238 0001223  77.6957 108.7874 15.60865135  4655
STARLINK-37888          
1 69535U 26133AD  26185.16671296 -.02489040  00000+0 -37373-1 0  9995
2 69535  53.1596 236.5035 0001374  82.5297 113.3314 15.58082628  4602
STARLINK-37889          
1 69536U 26133AE  26185.16671296 -.02053829  00000+0 -39120-1 0  9990
2 69536  53.1599 237.3634 0001114  66.0376  74.6275 15.50943383  4596
ZHUQUE-2E R/B           
1 69537U 26128C   26185.13661126  .00062520  00000+0  57000-3 0  9996
2 69537  54.5272 223.7509 0066756  30.9885 329.5060 15.64443802  3878
