OBJECT_NAME,OBJECT_ID,EPOCH,MEAN_MOTION,ECCENTRICITY,INCLINATION,RA_OF_ASC_NODE,ARG_OF_PERICENTER,MEAN_ANOMALY,EPHEMERIS_TYPE,CLASSIFICATION_TYPE,NORAD_CAT_ID,ELEMENT_SET_NO,REV_AT_EPOCH,BSTAR,MEAN_MOTION_DOT,MEAN_MOTION_DDOT
STARLINK-37536,2026-133A,2026-07-04T04:00:03.999744,15.52236558,.00007574,53.1595,237.5892,97.8721,294.2582,0,U,69508,999,470,-.43344061E-1,-.2342789E-1,0
STARLINK-37341,2026-133B,2026-07-04T04:00:03.999744,15.49738038,.00014301,53.1595,237.6044,74.2924,310.2160,0,U,69509,999,470,-.1318182E-1,-.683066E-2,0
STARLINK-36536,2026-133C,2026-07-04T04:00:03.999744,15.66382186,.00009534,53.1594,237.0972,75.4552,198.4580,0,U,69510,999,464,-.27055096E-1,-.2497278E-1,0
STARLINK-37420,2026-133D,2026-07-04T04:00:03.999744,15.71561267,.00007678,53.1597,236.9782,78.9075,252.6996,0,U,69511,999,459,-.22303693E-1,-.2547585E-1,0
STARLINK-37511,2026-133E,2026-07-04T04:00:03.999744,15.71547214,.00011382,53.1590,236.9897,92.8382,233.5293,0,U,69512,999,459,-.22660793E-1,-.2582005E-1,0
STARLINK-37552,2026-133F,2026-07-04T04:00:03.999744,15.49217852,.00020375,53.1597,237.5956,43.5426,344.2779,0,U,69513,999,459,.20417163E-2,.114415E-2,0
STARLINK-37607,2026-133G,2026-07-04T04:00:03.999744,15.69826297,.00007433,53.1594,236.9509,79.5875,265.6537,0,U,69514,999,459,-.24472949E-1,-.2590479E-1,0
STARLINK-37232,2026-133H,2026-07-04T04:00:03.999744,15.53542529,.00012522,53.1597,237.3256,70.7517,89.6062,0,U,69515,999,459,-.44310417E-1,-.2540733E-1,0
STARLINK-37323,2026-133J,2026-07-03T06:33:57.464064,15.78379244,.00060707,53.1575,241.3014,16.6600,343.4620,0,U,69516,999,457,-.1595591E-2,-.273472E-2,0
STARLINK-37357,2026-133K,2026-07-04T04:00:03.999744,15.49251087,.00005223,53.1599,237.5840,111.4114,280.4191,0,U,69517,999,459,.14419285E-2,.80411E-3,0
STARLINK-37408,2026-133L,2026-07-04T04:00:03.999744,15.63609419,.00007739,53.1590,236.9815,77.0358,251.9425,0,U,69518,999,459,-.30255343E-1,-.2497139E-1,0
STARLINK-37570,2026-133M,2026-07-04T04:00:03.999744,15.50463468,.00007396,53.1601,237.3408,106.3356,44.3478,0,U,69519,999,459,-.31142337E-1,-.1620913E-1,0
STARLINK-37510,2026-133N,2026-07-04T04:00:03.999744,15.52648695,.00015168,53.1595,237.2965,78.3994,94.8207,0,U,69520,999,459,-.33731934E-1,-.1867872E-1,0
STARLINK-37586,2026-133P,2026-07-03T01:38:33.645408,15.78258214,.00037462,53.1572,242.1453,339.3596,20.7274,0,U,69521,999,455,-.69089813E-2,-.1089186E-1,0
STARLINK-37379,2026-133Q,2026-07-04T04:00:03.999744,15.57257080,.0000908,53.1594,237.0192,78.6268,230.1721,0,U,69522,999,464,-.38918832E-1,-.250842E-1,0
STARLINK-37429,2026-133R,2026-07-04T04:00:03.999744,15.49258044,.00013453,53.1600,237.4003,87.3796,33.0944,0,U,69523,999,464,.1284497E-2,.71518E-3,0
STARLINK-37352,2026-133S,2026-07-04T04:00:03.999744,15.56344704,.00010061,53.1591,236.9948,102.4776,217.7831,0,U,69524,999,464,-.39730683E-1,-.2478835E-1,0
STARLINK-37490,2026-133T,2026-07-04T04:00:03.999744,15.65835902,.00012721,53.1597,236.6717,67.7477,50.0256,0,U,69525,999,464,-.28305782E-1,-.2547839E-1,0
STARLINK-37438,2026-133U,2026-07-04T04:00:03.999744,15.52357372,.00006842,53.1593,237.1240,88.5007,167.5740,0,U,69526,999,464,-.52271052E-1,-.2827031E-1,0
STARLINK-37484,2026-133V,2026-07-04T04:00:03.999744,15.67071990,.00010867,53.1595,236.6300,90.0575,48.0512,0,U,69527,999,464,-.20281654E-1,-.1949075E-1,0
STARLINK-37523,2026-133W,2026-07-04T04:00:03.999744,15.54040598,.00010221,53.1596,236.9603,80.4427,255.4899,0,U,69528,999,464,-.11781841E-1,-.710636E-2,0
STARLINK-37369,2026-133X,2026-07-04T04:00:03.999744,15.54599226,.00008488,53.1591,236.9245,93.1531,259.5482,0,U,69529,999,464,-.11415195E-1,-.703442E-2,0
STARLINK-37670,2026-133Y,2026-07-04T04:00:03.999744,15.49481252,.00010173,53.1592,237.0548,63.2517,225.1853,0,U,69530,999,464,-.59030676E-2,-.317687E-2,0
STARLINK-37897,2026-133Z,2026-07-04T04:00:03.999744,15.65156886,.00013445,53.1597,236.5500,79.5109,96.0685,0,U,69531,999,460,-.28855322E-1,-.2529727E-1,0
STARLINK-37933,2026-133AA,2026-07-04T04:00:03.999744,15.55709096,.00009935,53.1595,236.7534,95.1443,340.0141,0,U,69532,999,460,-.31408322E-1,-.1937166E-1,0
STARLINK-37890,2026-133AB,2026-07-04T04:00:03.999744,15.58588953,.00014328,53.1601,236.6221,72.5293,66.6746,0,U,69533,999,460,-.36777205E-1,-.24961E-1,0
STARLINK-37407,2026-133AC,2026-07-04T04:00:03.999744,15.60865135,.0001223,53.1595,236.5238,77.6957,108.7874,0,U,69534,999,465,-.33981012E-1,-.251496E-1,0
STARLINK-37888,2026-133AD,2026-07-04T04:00:03.999744,15.58082628,.00013742,53.1596,236.5035,82.5297,113.3314,0,U,69535,999,460,-.37373415E-1,-.248904E-1,0
STARLINK-37889,2026-133AE,2026-07-04T04:00:03.999744,15.50943383,.00011144,53.1599,237.3634,66.0376,74.6275,0,U,69536,999,459,-.39120024E-1,-.2053829E-1,0
ZHUQUE-2E R/B,2026-128C,2026-07-04T03:16:43.212864,15.64443802,.00667562,54.5272,223.7509,30.9885,329.5060,0,U,69537,999,387,.56999594E-3,.6252E-3,0
